OBJECT_NAME,OBJECT_ID,EPOCH,MEAN_MOTION,ECCENTRICITY,INCLINATION,RA_OF_ASC_NODE,ARG_OF_PERICENTER,MEAN_ANOMALY,EPHEMERIS_TYPE,CLASSIFICATION_TYPE,NORAD_CAT_ID,ELEMENT_SET_NO,REV_AT_EPOCH,BSTAR,MEAN_MOTION_DOT,MEAN_MOTION_DDOT
FENGYUN 1C DEB,1999-025EBT,2024-01-13T16:51:01.010592,13.44823384,.0323579,100.8580,191.6022,260.8145,95.6251,0,U,36987,999,51477,.11502E-2,.871E-5,0
FENGYUN 1C DEB,1999-025EBX,2024-01-11T20:33:24.783840,13.70085226,.0275826,98.1248,155.2304,124.4104,238.3455,0,U,36991,999,80871,.33537E-2,.3826E-4,0
FENGYUN 1C DEB,1999-025ECA,2024-01-18T11:02:47.977728,13.90256835,.011692,98.5763,26.1001,44.3655,316.6802,0,U,36994,999,71258,.27505E-3,.321E-5,0
FENGYUN 1C DEB,1999-025ECB,2024-01-19T13:39:18.717696,14.04541922,.0040406,98.3923,305.3835,114.8144,245.7236,0,U,36995,999,53825,.30223E-3,.447E-5,0
FENGYUN 1C DEB,1999-025ECC,2024-01-05T19:43:08.255712,14.05131975,.0273102,98.2147,214.7442,219.8835,204.8681,0,U,36996,999,75838,.70807E-3,.1556E-4,0
FENGYUN 1C DEB,1999-025ECK,2024-01-04T22:45:46.281312,13.94047807,.0097524,98.9183,48.4981,309.6857,172.4654,0,U,37003,999,72961,.62214E-3,.813E-5,0
FENGYUN 1C DEB,1999-025ECN,2024-01-11T07:03:02.855520,14.40391638,.0283451,99.3458,184.0217,155.3037,206.2030,0,U,37006,999,54985,.14801E-2,.7519E-4,0
FENGYUN 1C DEB,1999-025ECP,2024-01-14T22:33:48.121056,14.46562389,.0072357,99.0706,287.2870,343.3193,16.5618,0,U,37007,999,54978,.9925E-2,.37099E-3,0
FENGYUN 1C DEB,1999-025ECU,2024-01-19T11:59:55.212576,13.92021097,.0206114,98.6043,278.9954,105.0723,257.3344,0,U,37012,999,80826,.26474E-2,.3986E-4,0
FENGYUN 1C DEB,1999-025ECZ,2024-01-14T00:10:22.964736,14.26899205,.0327234,98.7475,301.8513,265.5667,90.8068,0,U,37017,999,51146,.2322E-2,.993E-4,0
FENGYUN 1C DEB,1999-025EDA,2024-01-18T20:39:25.712928,14.07941099,.0291194,98.5068,248.9481,143.8292,218.2964,0,U,37018,999,53666,.43327E-2,.10832E-3,0
FENGYUN 1C DEB,1999-025EDB,2024-01-20T11:16:21.082944,14.27347094,.0189185,98.6255,104.8113,206.0181,153.1396,0,U,37019,999,76550,.20736E-2,.6101E-4,0
FENGYUN 1C DEB,1999-025EDD,2024-01-19T22:45:25.256736,14.26384457,.0190583,98.4469,53.8098,137.9572,341.1118,0,U,37021,999,76532,.10559E-2,.3032E-4,0
FENGYUN 1C DEB,1999-025EDL,2024-01-08T10:43:58.938816,14.14327813,.0038188,99.2844,239.1635,293.3012,66.4142,0,U,37028,999,50489,.17279E-2,.3279E-4,0
FENGYUN 1C DEB,1999-025EEC,2024-01-11T04:56:39.593184,13.54925933,.0573543,98.9293,164.0217,197.1069,161.0007,0,U,37044,999,74299,.67999E-2,.1359E-3,0
FENGYUN 1C DEB,1999-025EEE,2024-01-01T07:04:01.922880,14.20647376,.0052831,98.5934,28.8554,213.7494,146.0316,0,U,37046,999,54064,.7138E-3,.1516E-4,0
FENGYUN 1C DEB,1999-025EEF,2024-01-18T10:35:54.675456,13.74064590,.0260936,99.1599,89.2267,259.5647,97.6002,0,U,37047,999,82740,.53529E-2,.6394E-4,0
FENGYUN 1C DEB,1999-025EEG,2024-01-18T13:56:02.155200,13.63849589,.0256061,98.9610,289.0119,162.4802,320.1820,0,U,37048,999,52702,.79485E-3,.749E-5,0
FENGYUN 1C DEB,1999-025EEH,2024-01-19T01:01:26.913504,14.26085678,.0046402,99.2143,317.4105,39.3147,321.1385,0,U,37049,999,53797,.34732E-2,.8357E-4,0
FENGYUN 1C DEB,1999-025EEM,2024-01-02T23:09:43.155648,14.40439447,.0054128,99.1835,45.7903,120.5880,358.5345,0,U,37053,999,54774,.11634E-2,.3713E-4,0
FENGYUN 1C DEB,1999-025EEN,2024-01-20T05:19:08.761152,14.17670181,.0102004,98.5026,23.5008,307.7279,51.4685,0,U,37054,999,54610,.64366E-3,.1336E-4,0
FENGYUN 1C DEB,1999-025EEQ,2024-01-14T20:49:22.267776,14.44266191,.0289316,98.9565,346.9192,75.2809,288.0254,0,U,37056,999,77355,.74251E-3,.421E-4,0
FENGYUN 1C DEB,1999-025EEU,2023-12-29T08:44:38.018688,13.99054058,.0081865,99.1997,50.3511,157.2653,203.2169,0,U,37060,999,52711,.70406E-3,.1003E-4,0
