0 FENGYUN 1C DEB
1 36987U 99025EBT 24013.70209503  .00000871  00000-0  11502-2 0  9991
2 36987 100.8580 191.6022 0323579 260.8145  95.6251 13.44823384514775
0 FENGYUN 1C DEB
1 36991U 99025EBX 24011.85653685  .00003826  00000-0  33537-2 0  9999
2 36991  98.1248 155.2304 0275826 124.4104 238.3455 13.70085226808716
0 FENGYUN 1C DEB
1 36994U 99025ECA 24018.46027752  .00000321  00000-0  27505-3 0  9992
2 36994  98.5763  26.1001 0116920  44.3655 316.6802 13.90256835712588
0 FENGYUN 1C DEB
1 36995U 99025ECB 24019.56896664  .00000447  00000-0  30223-3 0  9991
2 36995  98.3923 305.3835 0040406 114.8144 245.7236 14.04541922538256
0 FENGYUN 1C DEB
1 36996U 99025ECC 24005.82162333  .00001556  00000-0  70807-3 0  9999
2 36996  98.2147 214.7442 0273102 219.8835 204.8681 14.05131975758387
0 FENGYUN 1C DEB
1 37003U 99025ECK 24004.94845233  .00000813  00000-0  62214-3 0  9996
2 37003  98.9183  48.4981 0097524 309.6857 172.4654 13.94047807729619
0 FENGYUN 1C DEB
1 37006U 99025ECN 24011.29378305  .00007519  00000-0  14801-2 0  9994
2 37006  99.3458 184.0217 0283451 155.3037 206.2030 14.40391638549859
0 FENGYUN 1C DEB
1 37007U 99025ECP 24014.94014029  .00037099  00000-0  99250-2 0  9997
2 37007  99.0706 287.2870 0072357 343.3193  16.5618 14.46562389549782
0 FENGYUN 1C DEB
1 37012U 99025ECU 24019.49994459  .00003986  00000-0  26474-2 0  9998
2 37012  98.6043 278.9954 0206114 105.0723 257.3344 13.92021097808267
0 FENGYUN 1C DEB
1 37017U 99025ECZ 24014.00721024  .00009930  00000-0  23220-2 0  9992
2 37017  98.7475 301.8513 0327234 265.5667  90.8068 14.26899205511463
0 FENGYUN 1C DEB
1 37018U 99025EDA 24018.86071427  .00010832  00000-0  43327-2 0  9999
2 37018  98.5068 248.9481 0291194 143.8292 218.2964 14.07941099536660
0 FENGYUN 1C DEB
1 37019U 99025EDB 24020.46968846  .00006101  00000-0  20736-2 0  9992
2 37019  98.6255 104.8113 0189185 206.0181 153.1396 14.27347094765507
0 FENGYUN 1C DEB
1 37021U 99025EDD 24019.94820899  .00003032  00000-0  10559-2 0  9993
2 37021  98.4469  53.8098 0190583 137.9572 341.1118 14.26384457765324
0 FENGYUN 1C DEB
1 37028U 99025EDL 24008.44720994  .00003279  00000-0  17279-2 0  9997
2 37028  99.2844 239.1635 0038188 293.3012  66.4142 14.14327813504898
0 FENGYUN 1C DEB
1 37044U 99025EEC 24011.20601381  .00013590  00000-0  67999-2 0  9992
2 37044  98.9293 164.0217 0573543 197.1069 161.0007 13.54925933742991
0 FENGYUN 1C DEB
1 37046U 99025EEE 24001.29446670  .00001516  00000-0  71380-3 0  9995
2 37046  98.5934  28.8554 0052831 213.7494 146.0316 14.20647376540641
0 FENGYUN 1C DEB
1 37047U 99025EEF 24018.44160504  .00006394  00000-0  53529-2 0  9993
2 37047  99.1599  89.2267 0260936 259.5647  97.6002 13.74064590827407
0 FENGYUN 1C DEB
1 37048U 99025EEG 24018.58058050  .00000749  00000-0  79485-3 0  9999
2 37048  98.9610 289.0119 0256061 162.4802 320.1820 13.63849589527028
0 FENGYUN 1C DEB
1 37049U 99025EEH 24019.04267261  .00008357  00000-0  34732-2 0  9996
2 37049  99.2143 317.4105 0046402  39.3147 321.1385 14.26085678537978
0 FENGYUN 1C DEB
1 37053U 99025EEM 24002.96508282  .00003713  00000-0  11634-2 0  9992
2 37053  99.1835  45.7903 0054128 120.5880 358.5345 14.40439447547747
0 FENGYUN 1C DEB
1 37054U 99025EEN 24020.22162918  .00001336  00000-0  64366-3 0  9994
2 37054  98.5026  23.5008 0102004 307.7279  51.4685 14.17670181546102
0 FENGYUN 1C DEB
1 37056U 99025EEQ 24014.86761884  .00004210  00000-0  74251-3 0  9994
2 37056  98.9565 346.9192 0289316  75.2809 288.0254 14.44266191773553
0 FENGYUN 1C DEB
1 37060U 99025EEU 23363.36432892  .00001003  00000-0  70406-3 0  9999
2 37060  99.1997  50.3511 0081865 157.2653 203.2169 13.99054058527117
